{"fetched_at":"2026-03-30T13:17:50Z","count":15418,"tles":[{"name":"STARLINK-2604","line1":"1 48374U 21038X   26087.89512587  .00000411  00000+0  26011-4 0  9997","line2":"2 48374  53.1574 258.5893 0000834  82.6362 277.4733 15.30176870270162","category":"Starlink"}]}